INTELSAT 5 (IS-5)
1 24916U 97046A   21105.62091975  .00000094  00000-0  00000-0 0  9999
2 24916   6.3313  63.8058 0004080 334.4040 252.3221  1.00270316 86685